CZ-2D R/B               
1 28738U 05024B   26138.47803825  .00033731  00000+0  32630-3 0  9999
2 28738  97.3509 156.4963 0006712 116.6554 243.5394 15.66333156150680
ALOS (DAICHI)           
1 28931U 06002A   26138.48126152  .00000609  00000+0  10988-3 0  9993
2 28931  98.1310  94.1463 0002195  81.5215 278.6239 14.69982736 83736
H-2A R/B                
1 28932U 06002B   26138.38919363  .00003848  00000+0  18880-3 0  9994
2 28932  98.2534 291.5384 0050951   5.6557 354.5238 15.17674146105005
RESURS-DK 1             
1 29228U 06021A   26138.48581442  .00001213  00000+0  74500-4 0  9994
2 29228  69.9320  56.4314 0004921 328.1448  31.9420 15.13077578 98081
CZ-4B R/B               
1 29507U 06046C   26138.38537950  .00002902  00000+0  14615-3 0  9991
2 29507  97.5473 183.0868 0033416  28.6663 331.6398 15.17530420 70617
CZ-2C R/B               
1 31114U 07010B   26138.33053156  .00000064  00000+0  48137-4 0  9990
2 31114  98.4068 248.1468 0060194  91.8313 268.9760 14.20268348989603
COSMO-SKYMED 1          
1 31598U 07023A   26138.52465352  .00001411  00000+0  12806-3 0  9996
2 31598  97.8855 330.1340 0001191  94.1052 266.0305 14.96943747 25358
COSMOS 2428             
1 31792U 07029A   26138.48025578 -.00000251  00000+0 -10912-3 0  9994
2 31792  70.9397  56.8477 0007884 190.2534 169.8428 14.12937482973959
SL-16 R/B               
1 31793U 07029B   26138.07044449 -.00000242  00000+0 -10037-3 0  9996
2 31793  70.9774  26.5394 0002789 267.5504 196.6665 14.14850348975180
KORONAS-FOTON           
1 33504U 09003A   26138.42252815  .00007589  00000+0  15973-3 0  9992
2 33504  82.4308 203.2909 0008874 258.4051 101.6201 15.45046646956506
CZ-2C R/B               
1 37731U 11030B   26138.46696358  .00000588  00000+0  80168-4 0  9990
2 37731  97.8640  94.3956 0053658 122.3059 352.4027 14.81394496800428
H-2A R/B                
1 38341U 12025E   26138.45243824  .00001528  00000+0  14124-3 0  9991
2 38341  98.4815 111.1557 0045476  84.6666 275.9738 14.95536473758647
SHIJIAN-16 (SJ-16)      
1 39358U 13057A   26138.54564413  .00001110  00000+0  11070-3 0  9990
2 39358  74.9745  52.8204 0016917 298.8233  61.1257 14.92529539681923
SL-4 R/B                
1 39679U 14021B   26138.30881683  .00007024  00000+0  15249-3 0  9995
2 39679  51.6071 357.0664 0092110 357.5241   2.5276 15.41220782667000
ALOS-2                  
1 39766U 14029A   26138.51597034  .00001258  00000+0  17524-3 0  9998
2 39766  97.9230 236.1039 0001603  89.5540 270.5855 14.79480295647196
YAOGAN-29               
1 41038U 15069A   26138.55905317  .00000279  00000+0  40989-4 0  9993
2 41038  98.0043 167.1430 0002906 103.8257 256.3279 14.83057784566230
ASTRO-H (HITOMI)        
1 41337U 16012A   26138.42890900  .00001590  00000+0  88741-4 0  9996
2 41337  30.9992 266.3581 0009599 313.6685  46.3157 15.10379101562789
HXMT (HUIYAN)           
1 42758U 17034A   26138.53108758  .00002986  00000+0  15320-3 0  9996
2 42758  43.0155 348.1395 0032558 315.1520  44.6698 15.18183602493153
SAOCOM 1A               
1 43641U 18076A   26138.49894782  .00000410  00000+0  58071-4 0  9990
2 43641  97.8881 325.6787 0001582  83.4550 276.6843 14.82151396411709
H-2A R/B                
1 43682U 18084L   26138.39200201  .00011182  00000+0  24552-3 0  9994
2 43682  98.8614  10.7986 0024672 138.7226 221.5889 15.43954546416521
SAOCOM 1B               
1 46265U 20059A   26138.53016340  .00000024  00000+0  95901-5 0  9995
2 46265  97.8880 324.8032 0001472  84.7811 275.3570 14.82144631309094
CSS (TIANHE)            
1 48274U 21035A   26138.46988834  .00009962  00000+0  12053-3 0  9995
2 48274  41.4668 142.7157 0007478 254.3964 105.6049 15.60652819288525
COSMOS 2550             
1 48865U 21056A   26138.54983672  .00003220  00000+0  10335-3 0  9990
2 48865  67.1421 189.5553 0008485 265.9614  94.0571 15.33924617274176
CZ-2C R/B               
1 52794U 22058K   26138.21486608  .00027661  00000+0  33663-3 0  9994
2 52794  50.1870 319.2114 0035710 139.7772 220.5853 15.59501101220965
CZ-2C R/B               
1 54039U 22132E   26138.44609419  .00033563  00000+0  30060-3 0  9999
2 54039  97.2918 144.2213 0015715 178.3934 181.7381 15.68109214201289
GSLV R/B                
1 54149U 22138AN  26138.04093280  .00001543  00000+0  13086-3 0  9998
2 54149  87.3795 143.1096 0018693 257.9943 101.9194 14.97112763194307
XRISM                   
1 57800U 23137A   26138.49021308  .00002494  00000+0  13544-3 0  9991
2 57800  31.0009 191.9268 0007584  24.1675 335.9318 15.12190699148367
ACS3                    
1 59588U 24077B   26137.39856968  .00000483  00000+0  39504-3 0  9996
2 59588  97.1717  63.0800 0024488 354.8515   5.2395 13.92753301103757
HTV-X1                  
1 66174U 25241A   26138.11958860  .00009734  00000+0  10823-3 0  9995
2 66174  51.6352  92.4586 0007558  72.8093 287.3728 15.63599726 31640
SZ-21 MODULE            
1 66515U 25246C   26138.35173043  .00026488  00000+0  18385-3 0  9993
2 66515  41.4717 132.7781 0003728 171.8834 188.2070 15.73805125 29037
